[
  {
    "OBJECT_NAME": "DIWATA-2B",
    "OBJECT_ID": "2018-084H",
    "EPOCH": "2025-04-16T19:47:03.992064",
    "MEAN_MOTION": 14.98010664,
    "ECCENTRICITY": 0.0010047,
    "INCLINATION": 98.1003,
    "RA_OF_ASC_NODE": 280.9149,
    "ARG_OF_PERICENTER": 106.1792,
    "MEAN_ANOMALY": 254.0535,
    "EPHEMERIS_TYPE": 0,
    "CLASSIFICATION_TYPE": "U",
    "NORAD_CAT_ID": 43678,
    "ELEMENT_SET_NO": 999,
    "REV_AT_EPOCH": 35233,
    "BSTAR": 0.00080714,
    "MEAN_MOTION_DOT": 9.487e-5,
    "MEAN_MOTION_DDOT": 0
  },
  {
    "OBJECT_NAME": "ES'HAIL 2",
    "OBJECT_ID": "2018-090A",
    "EPOCH": "2025-04-16T23:08:38.622624",
    "MEAN_MOTION": 1.00275544,
    "ECCENTRICITY": 0.0002124,
    "INCLINATION": 0.013,
    "RA_OF_ASC_NODE": 252.7464,
    "ARG_OF_PERICENTER": 175.2778,
    "MEAN_ANOMALY": 150.3257,
    "EPHEMERIS_TYPE": 0,
    "CLASSIFICATION_TYPE": "U",
    "NORAD_CAT_ID": 43700,
    "ELEMENT_SET_NO": 999,
    "REV_AT_EPOCH": 2340,
    "BSTAR": 0,
    "MEAN_MOTION_DOT": 1.55e-6,
    "MEAN_MOTION_DDOT": 0
  },
  {
    "OBJECT_NAME": "FOX-1CLIFF (AO-95)",
    "OBJECT_ID": "2018-099N",
    "EPOCH": "2025-04-16T02:06:10.996992",
    "MEAN_MOTION": 15.15991714,
    "ECCENTRICITY": 0.0011725,
    "INCLINATION": 97.4968,
    "RA_OF_ASC_NODE": 164.8046,
    "ARG_OF_PERICENTER": 49.896,
    "MEAN_ANOMALY": 310.3298,
    "EPHEMERIS_TYPE": 0,
    "CLASSIFICATION_TYPE": "U",
    "NORAD_CAT_ID": 43770,
    "ELEMENT_SET_NO": 999,
    "REV_AT_EPOCH": 34829,
    "BSTAR": 0.00086555,
    "MEAN_MOTION_DOT": 0.00016606,
    "MEAN_MOTION_DDOT": 0
  },
  {
    "OBJECT_NAME": "ITASAT",
    "OBJECT_ID": "2018-099AE",
    "EPOCH": "2025-04-16T16:41:44.661120",
    "MEAN_MOTION": 15.12070036,
    "ECCENTRICITY": 0.0015195,
    "INCLINATION": 97.4619,
    "RA_OF_ASC_NODE": 162.2496,
    "ARG_OF_PERICENTER": 38.6587,
    "MEAN_ANOMALY": 321.5729,
    "EPHEMERIS_TYPE": 0,
    "CLASSIFICATION_TYPE": "U",
    "NORAD_CAT_ID": 43786,
    "ELEMENT_SET_NO": 999,
    "REV_AT_EPOCH": 34831,
    "BSTAR": 0.00075504,
    "MEAN_MOTION_DOT": 0.00012973,
    "MEAN_MOTION_DDOT": 0
  },
  {
    "OBJECT_NAME": "JY1SAT (JO-97)",
    "OBJECT_ID": "2018-099AX",
    "EPOCH": "2025-04-16T14:35:55.160448",
    "MEAN_MOTION": 15.19301947,
    "ECCENTRICITY": 0.0006438,
    "INCLINATION": 97.471,
    "RA_OF_ASC_NODE": 166.2066,
    "ARG_OF_PERICENTER": 343.8959,
    "MEAN_ANOMALY": 16.207,
    "EPHEMERIS_TYPE": 0,
    "CLASSIFICATION_TYPE": "U",
    "NORAD_CAT_ID": 43803,
    "ELEMENT_SET_NO": 999,
    "REV_AT_EPOCH": 34857,
    "BSTAR": 0.00095894,
    "MEAN_MOTION_DOT": 0.00020223,
    "MEAN_MOTION_DDOT": 0
  },
  {
    "OBJECT_NAME": "UWE-4",
    "OBJECT_ID": "2018-111E",
    "EPOCH": "2025-04-16T06:39:22.972608",
    "MEAN_MOTION": 15.23884419,
    "ECCENTRICITY": 0.0014383,
    "INCLINATION": 97.5931,
    "RA_OF_ASC_NODE": 18.396,
    "ARG_OF_PERICENTER": 49.0961,
    "MEAN_ANOMALY": 311.1519,
    "EPHEMERIS_TYPE": 0,
    "CLASSIFICATION_TYPE": "U",
    "NORAD_CAT_ID": 43880,
    "ELEMENT_SET_NO": 999,
    "REV_AT_EPOCH": 34535,
    "BSTAR": 0.0013552,
    "MEAN_MOTION_DOT": 0.00032846,
    "MEAN_MOTION_DDOT": 0
  },
  {
    "OBJECT_NAME": "DUCHIFAT-3",
    "OBJECT_ID": "2019-089C",
    "EPOCH": "2025-04-16T23:00:44.223552",
    "MEAN_MOTION": 15.41413145,
    "ECCENTRICITY": 6.69e-5,
    "INCLINATION": 36.9461,
    "RA_OF_ASC_NODE": 334.9169,
    "ARG_OF_PERICENTER": 306.3661,
    "MEAN_ANOMALY": 53.7032,
    "EPHEMERIS_TYPE": 0,
    "CLASSIFICATION_TYPE": "U",
    "NORAD_CAT_ID": 44854,
    "ELEMENT_SET_NO": 999,
    "REV_AT_EPOCH": 29472,
    "BSTAR": 0.0041528,
    "MEAN_MOTION_DOT": 0.00182596,
    "MEAN_MOTION_DDOT": 0
  },
  {
    "OBJECT_NAME": "TIANYAN 01",
    "OBJECT_ID": "2019-093C",
    "EPOCH": "2025-04-16T22:39:08.208864",
    "MEAN_MOTION": 14.85463291,
    "ECCENTRICITY": 0.0014891,
    "INCLINATION": 97.7937,
    "RA_OF_ASC_NODE": 183.7148,
    "ARG_OF_PERICENTER": 52.0898,
    "MEAN_ANOMALY": 308.1661,
    "EPHEMERIS_TYPE": 0,
    "CLASSIFICATION_TYPE": "U",
    "NORAD_CAT_ID": 44881,
    "ELEMENT_SET_NO": 999,
    "REV_AT_EPOCH": 28811,
    "BSTAR": 0.00048427,
    "MEAN_MOTION_DOT": 4.133e-5,
    "MEAN_MOTION_DDOT": 0
  },
  {
    "OBJECT_NAME": "RS-44 & BREEZE-KM R/B",
    "OBJECT_ID": "2019-096E",
    "EPOCH": "2025-04-16T22:09:02.269152",
    "MEAN_MOTION": 12.79740144,
    "ECCENTRICITY": 0.0218298,
    "INCLINATION": 82.5179,
    "RA_OF_ASC_NODE": 262.9294,
    "ARG_OF_PERICENTER": 61.2201,
    "MEAN_ANOMALY": 301.0635,
    "EPHEMERIS_TYPE": 0,
    "CLASSIFICATION_TYPE": "U",
    "NORAD_CAT_ID": 44909,
    "ELEMENT_SET_NO": 999,
    "REV_AT_EPOCH": 24782,
    "BSTAR": 2.3812e-6,
    "MEAN_MOTION_DOT": 1.3e-7,
    "MEAN_MOTION_DDOT": 0
  },
  {
    "OBJECT_NAME": "SALSAT",
    "OBJECT_ID": "2020-068K",
    "EPOCH": "2025-04-16T21:56:17.034720",
    "MEAN_MOTION": 15.21778454,
    "ECCENTRICITY": 0.0011447,
    "INCLINATION": 97.8581,
    "RA_OF_ASC_NODE": 82.5121,
    "ARG_OF_PERICENTER": 0.1843,
    "MEAN_ANOMALY": 359.9394,
    "EPHEMERIS_TYPE": 0,
    "CLASSIFICATION_TYPE": "U",
    "NORAD_CAT_ID": 46495,
    "ELEMENT_SET_NO": 999,
    "REV_AT_EPOCH": 25036,
    "BSTAR": 0.0013621,
    "MEAN_MOTION_DOT": 0.00030982,
    "MEAN_MOTION_DDOT": 0
  },
  {
    "OBJECT_NAME": "LEDSAT",
    "OBJECT_ID": "2021-073D",
    "EPOCH": "2025-04-16T21:41:22.706592",
    "MEAN_MOTION": 15.53280856,
    "ECCENTRICITY": 0.0011036,
    "INCLINATION": 97.3921,
    "RA_OF_ASC_NODE": 186.4872,
    "ARG_OF_PERICENTER": 264.5649,
    "MEAN_ANOMALY": 95.4345,
    "EPHEMERIS_TYPE": 0,
    "CLASSIFICATION_TYPE": "U",
    "NORAD_CAT_ID": 49069,
    "ELEMENT_SET_NO": 999,
    "REV_AT_EPOCH": 20308,
    "BSTAR": 0.0032657,
    "MEAN_MOTION_DOT": 0.00211252,
    "MEAN_MOTION_DDOT": 0
  },
  {
    "OBJECT_NAME": "XW-3 (CAS-9)",
    "OBJECT_ID": "2021-131B",
    "EPOCH": "2025-04-16T22:32:42.118368",
    "MEAN_MOTION": 14.40733278,
    "ECCENTRICITY": 0.0003016,
    "INCLINATION": 98.5082,
    "RA_OF_ASC_NODE": 196.564,
    "ARG_OF_PERICENTER": 304.4027,
    "MEAN_ANOMALY": 55.6876,
    "EPHEMERIS_TYPE": 0,
    "CLASSIFICATION_TYPE": "U",
    "NORAD_CAT_ID": 50466,
    "ELEMENT_SET_NO": 999,
    "REV_AT_EPOCH": 17372,
    "BSTAR": 0.00067913,
    "MEAN_MOTION_DOT": 2.127e-5,
    "MEAN_MOTION_DDOT": 0
  },
  {
    "OBJECT_NAME": "STRATOSAT-TK 1 (RS52S)",
    "OBJECT_ID": "2023-091B",
    "EPOCH": "2025-04-16T21:47:38.500800",
    "MEAN_MOTION": 15.35663004,
    "ECCENTRICITY": 0.0011159,
    "INCLINATION": 97.5582,
    "RA_OF_ASC_NODE": 168.8114,
    "ARG_OF_PERICENTER": 142.5418,
    "MEAN_ANOMALY": 217.6605,
    "EPHEMERIS_TYPE": 0,
    "CLASSIFICATION_TYPE": "U",
    "NORAD_CAT_ID": 57167,
    "ELEMENT_SET_NO": 999,
    "REV_AT_EPOCH": 9976,
    "BSTAR": 0.0050815,
    "MEAN_MOTION_DOT": 0.00180439,
    "MEAN_MOTION_DDOT": 0
  },
  {
    "OBJECT_NAME": "UMKA 1 (RS40S)",
    "OBJECT_ID": "2023-091G",
    "EPOCH": "2025-04-16T21:50:33.161856",
    "MEAN_MOTION": 15.1458294,
    "ECCENTRICITY": 0.0015617,
    "INCLINATION": 97.5628,
    "RA_OF_ASC_NODE": 162.5834,
    "ARG_OF_PERICENTER": 155.4373,
    "MEAN_ANOMALY": 204.7606,
    "EPHEMERIS_TYPE": 0,
    "CLASSIFICATION_TYPE": "U",
    "NORAD_CAT_ID": 57172,
    "ELEMENT_SET_NO": 999,
    "REV_AT_EPOCH": 9935,
    "BSTAR": 0.0015043,
    "MEAN_MOTION_DOT": 0.00027859,
    "MEAN_MOTION_DDOT": 0
  }
]
