DIWATA-2B               
1 43678U 18084H   25106.82435176  .00009487  00000+0  80714-3 0  9999
2 43678  98.1003 280.9149 0010047 106.1792 254.0535 14.98010664352331
ES'HAIL 2               
1 43700U 18090A   25106.96433591  .00000155  00000+0  00000+0 0  9995
2 43700   0.0130 252.7464 0002124 175.2778 150.3257  1.00275544 23406
FOX-1CLIFF (AO-95)      
1 43770U 18099N   25106.08762728  .00016606  00000+0  86555-3 0  9992
2 43770  97.4968 164.8046 0011725  49.8960 310.3298 15.15991714348292
ITASAT                  
1 43786U 18099AE  25106.69565580  .00012973  00000+0  75504-3 0  9998
2 43786  97.4619 162.2496 0015195  38.6587 321.5729 15.12070036348317
JY1SAT (JO-97)          
1 43803U 18099AX  25106.60827732  .00020223  00000+0  95894-3 0  9990
2 43803  97.4710 166.2066 0006438 343.8959  16.2070 15.19301947348570
UWE-4                   
1 43880U 18111E   25106.27734922  .00032846  00000+0  13552-2 0  9995
2 43880  97.5931  18.3960 0014383  49.0961 311.1519 15.23884419345350
DUCHIFAT-3              
1 44854U 19089C   25106.95884518  .00182596  00000+0  41528-2 0  9996
2 44854  36.9461 334.9169 0000669 306.3661  53.7032 15.41413145294720
TIANYAN 01              
1 44881U 19093C   25106.94384501  .00004133  00000+0  48427-3 0  9993
2 44881  97.7937 183.7148 0014891  52.0898 308.1661 14.85463291288114
RS-44 & BREEZE-KM R/B   
1 44909U 19096E   25106.92294293  .00000013  00000+0  23812-5 0  9999
2 44909  82.5179 262.9294 0218298  61.2201 301.0635 12.79740144247826
SALSAT                  
1 46495U 20068K   25106.91408605  .00030982  00000+0  13621-2 0  9997
2 46495  97.8581  82.5121 0011447   0.1843 359.9394 15.21778454250362
LEDSAT                  
1 49069U 21073D   25106.90373503  .00211252  00000+0  32657-2 0  9992
2 49069  97.3921 186.4872 0011036 264.5649  95.4345 15.53280856203080
XW-3 (CAS-9)            
1 50466U 21131B   25106.93937637  .00002127  00000+0  67913-3 0  9990
2 50466  98.5082 196.5640 0003016 304.4027  55.6876 14.40733278173722
STRATOSAT-TK 1 (RS52S)  
1 57167U 23091B   25106.90808450  .00180439  00000+0  50815-2 0  9994
2 57167  97.5582 168.8114 0011159 142.5418 217.6605 15.35663004 99766
UMKA 1 (RS40S)          
1 57172U 23091G   25106.91010604  .00027859  00000+0  15043-2 0  9997
2 57172  97.5628 162.5834 0015617 155.4373 204.7606 15.14582940 99358
